start=new Date('2021-10-17T00:00:00.000Z').valueOf();
sats=[{"LAUNCH_DATE":"2021-03-24","REF_FRAME":"TEME","OBJECT_TYPE":"PAYLOAD","MEAN_ANOMALY":"283.6648","ELEMENT_SET_NO":"999","CLASSIFICATION_TYPE":"U","EPOCH":"2021-10-16T07:37:19.884864","TLE_LINE2":"2 47997  53.0571 318.4082 0001174  76.4472 283.6648 15.06393988 32945","GP_ID":"187356769","ECCENTRICITY":"0.00011740","MEAN_MOTION_DOT":"0.00001700","PERIAPSIS":"546.419","MEAN_ELEMENT_THEORY":"SGP4","ARG_OF_PERICENTER":"76.4472","APOAPSIS":"548.045","MEAN_MOTION":"15.06393988","COUNTRY_CODE":"US","TLE_LINE1":"1 47997U 21024W   21289.31759126  .00001700  00000-0  13300-3 0  9999","DECAY_DATE":null,"RA_OF_ASC_NODE":"318.4082","INCLINATION":"53.0571","PERIOD":"95.593","OBJECT_NAME":"STARLINK-2266","OBJECT_ID":"2021-024W","SITE":"AFETR","CENTER_NAME":"EARTH","BSTAR":"0.00013300000000","FILE":"3166610","SEMIMAJOR_AXIS":"6925.367","REV_AT_EPOCH":"3294","NORAD_CAT_ID":"47997","MEAN_MOTION_DDOT":"0.0000000000000","RCS_SIZE":"LARGE","EPHEMERIS_TYPE":"0","TIME_SYSTEM":"UTC"},{"MEAN_ELEMENT_THEORY":"SGP4","ARG_OF_PERICENTER":"76.3103","APOAPSIS":"548.128","MEAN_MOTION":"15.06379272","TLE_LINE1":"1 47998U 21024X   21289.30237566  .00000895  00000-0  79014-4 0  9997","COUNTRY_CODE":"US","MEAN_MOTION_DOT":"0.00000895","PERIAPSIS":"546.426","ELEMENT_SET_NO":"999","CLASSIFICATION_TYPE":"U","TLE_LINE2":"2 47998  53.0516 293.4858 0001229  76.3103 283.8023 15.06379272 33231","GP_ID":"187358020","EPOCH":"2021-10-16T07:15:25.257024","ECCENTRICITY":"0.00012290","LAUNCH_DATE":"2021-03-24","OBJECT_TYPE":"PAYLOAD","MEAN_ANOMALY":"283.8023","REF_FRAME":"TEME","EPHEMERIS_TYPE":"0","RCS_SIZE":"LARGE","TIME_SYSTEM":"UTC","FILE":"3166610","SEMIMAJOR_AXIS":"6925.412","NORAD_CAT_ID":"47998","REV_AT_EPOCH":"3323","MEAN_MOTION_DDOT":"0.0000000000000","OBJECT_ID":"2021-024X","CENTER_NAME":"EARTH","SITE":"AFETR","BSTAR":"0.00007901400000","DECAY_DATE":null,"INCLINATION":"53.0516","RA_OF_ASC_NODE":"293.4858","PERIOD":"95.593","OBJECT_NAME":"STARLINK-2296"},{"SEMIMAJOR_AXIS":"6857.331","FILE":"3166610","MEAN_MOTION_DDOT":"0.0000000000000","NORAD_CAT_ID":"47999","REV_AT_EPOCH":"365","RCS_SIZE":"LARGE","EPHEMERIS_TYPE":"0","TIME_SYSTEM":"UTC","DECAY_DATE":null,"PERIOD":"94.187","OBJECT_NAME":"STARLINK-2218","INCLINATION":"53.0419","RA_OF_ASC_NODE":"262.7201","SITE":"AFETR","CENTER_NAME":"EARTH","OBJECT_ID":"2021-024Y","BSTAR":"-0.03579300000000","MEAN_MOTION_DOT":"-0.00942615","PERIAPSIS":"478.041","APOAPSIS":"480.352","ARG_OF_PERICENTER":"43.9122","MEAN_ELEMENT_THEORY":"SGP4","TLE_LINE1":"1 47999U 21024Y   21289.66667824 -.00942615  00000-0 -35793-1 0  9991","COUNTRY_CODE":"US","MEAN_MOTION":"15.28868200","LAUNCH_DATE":"2021-03-24","MEAN_ANOMALY":"178.4280","OBJECT_TYPE":"PAYLOAD","REF_FRAME":"TEME","ELEMENT_SET_NO":"999","CLASSIFICATION_TYPE":"U","ECCENTRICITY":"0.00016850","TLE_LINE2":"2 47999  53.0419 262.7201 0001685  43.9122 178.4280 15.28868200  3657","GP_ID":"187357771","EPOCH":"2021-10-16T16:00:00.999936"},{"OBJECT_NAME":"STARLINK-2270","PERIOD":"91.534","INCLINATION":"53.0433","RA_OF_ASC_NODE":"257.9838","DECAY_DATE":null,"BSTAR":"0.00047323000000","SITE":"AFETR","CENTER_NAME":"EARTH","OBJECT_ID":"2021-024Z","MEAN_MOTION_DDOT":"0.0000000000000","NORAD_CAT_ID":"48000","REV_AT_EPOCH":"3331","SEMIMAJOR_AXIS":"6727.944","FILE":"3166426","TIME_SYSTEM":"UTC","RCS_SIZE":"LARGE","EPHEMERIS_TYPE":"0","OBJECT_TYPE":"PAYLOAD","MEAN_ANOMALY":"142.6868","REF_FRAME":"TEME","LAUNCH_DATE":"2021-03-24","ECCENTRICITY":"0.00034870","GP_ID":"187331509","TLE_LINE2":"2 48000  53.0433 257.9838 0003487   7.0757 142.6868 15.73182770 33318","EPOCH":"2021-10-16T22:00:01.999584","CLASSIFICATION_TYPE":"U","ELEMENT_SET_NO":"999","PERIAPSIS":"347.463","MEAN_MOTION_DOT":"0.00066298","TLE_LINE1":"1 48000U 21024Z   21289.91668981  .00066298  00000-0  47323-3 0  9994","COUNTRY_CODE":"US","MEAN_MOTION":"15.73182770","APOAPSIS":"352.155","ARG_OF_PERICENTER":"7.0757","MEAN_ELEMENT_THEORY":"SGP4"},{"CLASSIFICATION_TYPE":"U","ELEMENT_SET_NO":"999","EPOCH":"2021-10-16T22:00:01.999584","TLE_LINE2":"2 48001  53.0433 257.9820 0004020 318.9308 191.4140 15.73150406 33316","GP_ID":"187331512","ECCENTRICITY":"0.00040200","LAUNCH_DATE":"2021-03-24","REF_FRAME":"TEME","MEAN_ANOMALY":"191.4140","OBJECT_TYPE":"PAYLOAD","MEAN_ELEMENT_THEORY":"SGP4","ARG_OF_PERICENTER":"318.9308","APOAPSIS":"352.606","MEAN_MOTION":"15.73150406","TLE_LINE1":"1 48001U 21024AA  21289.91668981  .00067288  00000-0  48079-3 0  9994","COUNTRY_CODE":"US","MEAN_MOTION_DOT":"0.00067288","PERIAPSIS":"347.197","OBJECT_ID":"2021-024AA","SITE":"AFETR","CENTER_NAME":"EARTH","BSTAR":"0.00048079000000","DECAY_DATE":null,"RA_OF_ASC_NODE":"257.9820","INCLINATION":"53.0433","OBJECT_NAME":"STARLINK-2262","PERIOD":"91.536","EPHEMERIS_TYPE":"0","RCS_SIZE":"MEDIUM","TIME_SYSTEM":"UTC","FILE":"3166426","SEMIMAJOR_AXIS":"6728.037","REV_AT_EPOCH":"3331","NORAD_CAT_ID":"48001","MEAN_MOTION_DDOT":"0.0000000000000"},{"EPHEMERIS_TYPE":"0","RCS_SIZE":"LARGE","TIME_SYSTEM":"UTC","SEMIMAJOR_AXIS":"6919.128","FILE":"3166610","MEAN_MOTION_DDOT":"0.0000000000000","REV_AT_EPOCH":"362","NORAD_CAT_ID":"48002","SITE":"AFETR","CENTER_NAME":"EARTH","OBJECT_ID":"2021-024AB","BSTAR":"-0.06815500000000","DECAY_DATE":null,"PERIOD":"95.463","OBJECT_NAME":"STARLINK-2265","RA_OF_ASC_NODE":"266.8450","INCLINATION":"53.0394","APOAPSIS":"542.166","MEAN_ELEMENT_THEORY":"SGP4","ARG_OF_PERICENTER":"42.7606","TLE_LINE1":"1 48002U 21024AB  21289.66667824 -.00998264  00000-0 -68155-1 0  9996","COUNTRY_CODE":"US","MEAN_MOTION":"15.08431974","MEAN_MOTION_DOT":"-0.00998264","PERIAPSIS":"539.819","CLASSIFICATION_TYPE":"U","ELEMENT_SET_NO":"999","ECCENTRICITY":"0.00016960","EPOCH":"2021-10-16T16:00:00.999936","TLE_LINE2":"2 48002  53.0394 266.8450 0001696  42.7606 307.9042 15.08431974  3626","GP_ID":"187357521","LAUNCH_DATE":"2021-03-24","REF_FRAME":"TEME","MEAN_ANOMALY":"307.9042","OBJECT_TYPE":"PAYLOAD"},{"MEAN_MOTION_DOT":"0.00002020","PERIAPSIS":"546.310","APOAPSIS":"548.198","ARG_OF_PERICENTER":"74.9002","MEAN_ELEMENT_THEORY":"SGP4","COUNTRY_CODE":"US","TLE_LINE1":"1 48003U 21024AC  21289.35399229  .00002020  00000-0  15451-3 0  9991","MEAN_MOTION":"15.06386775","LAUNCH_DATE":"2021-03-24","REF_FRAME":"TEME","OBJECT_TYPE":"PAYLOAD","MEAN_ANOMALY":"285.2137","CLASSIFICATION_TYPE":"U","ELEMENT_SET_NO":"999","ECCENTRICITY":"0.00013630","EPOCH":"2021-10-16T08:29:44.933856","GP_ID":"187358271","TLE_LINE2":"2 48003  53.0563 343.2362 0001363  74.9002 285.2137 15.06386775 32536","SEMIMAJOR_AXIS":"6925.389","FILE":"3166610","MEAN_MOTION_DDOT":"0.0000000000000","REV_AT_EPOCH":"3253","NORAD_CAT_ID":"48003","RCS_SIZE":"LARGE","EPHEMERIS_TYPE":"0","TIME_SYSTEM":"UTC","DECAY_DATE":null,"PERIOD":"95.593","OBJECT_NAME":"STARLINK-2263","RA_OF_ASC_NODE":"343.2362","INCLINATION":"53.0563","SITE":"AFETR","CENTER_NAME":"EARTH","OBJECT_ID":"2021-024AC","BSTAR":"0.00015451000000"},{"OBJECT_NAME":"STARLINK-2261","PERIOD":"91.531","INCLINATION":"53.0441","RA_OF_ASC_NODE":"258.9059","DECAY_DATE":null,"BSTAR":"-0.00038539000000","SITE":"AFETR","CENTER_NAME":"EARTH","OBJECT_ID":"2021-024AD","MEAN_MOTION_DDOT":"0.0000000000000","NORAD_CAT_ID":"48004","REV_AT_EPOCH":"368","SEMIMAJOR_AXIS":"6727.796","FILE":"3166610","TIME_SYSTEM":"UTC","RCS_SIZE":"LARGE","EPHEMERIS_TYPE":"0","MEAN_ANOMALY":"41.3242","OBJECT_TYPE":"PAYLOAD","REF_FRAME":"TEME","LAUNCH_DATE":"2021-03-24","ECCENTRICITY":"0.00079540","TLE_LINE2":"2 48004  53.0441 258.9059 0007954 288.2599  41.3242 15.73234859  3681","GP_ID":"187357019","EPOCH":"2021-10-16T16:00:00.999936","ELEMENT_SET_NO":"999","CLASSIFICATION_TYPE":"U","PERIAPSIS":"344.310","MEAN_MOTION_DOT":"-0.00054572","TLE_LINE1":"1 48004U 21024AD  21289.66667824 -.00054572  00000-0 -38539-3 0  9998","COUNTRY_CODE":"US","MEAN_MOTION":"15.73234859","APOAPSIS":"355.012","MEAN_ELEMENT_THEORY":"SGP4","ARG_OF_PERICENTER":"288.2599"},{"LAUNCH_DATE":"2021-03-24","MEAN_ANOMALY":"310.7336","OBJECT_TYPE":"PAYLOAD","REF_FRAME":"TEME","ELEMENT_SET_NO":"999","CLASSIFICATION_TYPE":"U","GP_ID":"187331990","TLE_LINE2":"2 48005  53.0581 312.7496 0003193  49.3930 310.7336 15.06407521 32512","EPOCH":"2021-10-16T11:07:40.049472","ECCENTRICITY":"0.00031930","MEAN_MOTION_DOT":"-0.00005362","PERIAPSIS":"544.979","MEAN_ELEMENT_THEORY":"SGP4","ARG_OF_PERICENTER":"49.3930","APOAPSIS":"549.402","MEAN_MOTION":"15.06407521","COUNTRY_CODE":"US","TLE_LINE1":"1 48005U 21024AE  21289.46365798 -.00005362  00000-0 -34119-3 0  9995","DECAY_DATE":null,"INCLINATION":"53.0581","RA_OF_ASC_NODE":"312.7496","OBJECT_NAME":"STARLINK-2254","PERIOD":"95.592","OBJECT_ID":"2021-024AE","CENTER_NAME":"EARTH","SITE":"AFETR","BSTAR":"-0.00034119000000","FILE":"3166409","SEMIMAJOR_AXIS":"6925.326","NORAD_CAT_ID":"48005","REV_AT_EPOCH":"3251","MEAN_MOTION_DDOT":"0.0000000000000","EPHEMERIS_TYPE":"0","RCS_SIZE":"LARGE","TIME_SYSTEM":"UTC"},{"FILE":"3166610","SEMIMAJOR_AXIS":"6718.559","REV_AT_EPOCH":"368","NORAD_CAT_ID":"48006","MEAN_MOTION_DDOT":"0.0000000000000","EPHEMERIS_TYPE":"0","RCS_SIZE":"LARGE","TIME_SYSTEM":"UTC","DECAY_DATE":null,"RA_OF_ASC_NODE":"258.6032","INCLINATION":"53.0412","PERIOD":"91.343","OBJECT_NAME":"STARLINK-2277","OBJECT_ID":"2021-024AF","SITE":"AFETR","CENTER_NAME":"EARTH","BSTAR":"0.00034445000000","MEAN_MOTION_DOT":"0.00055572","PERIAPSIS":"335.148","MEAN_ELEMENT_THEORY":"SGP4","ARG_OF_PERICENTER":"356.2081","APOAPSIS":"345.700","MEAN_MOTION":"15.76480420","TLE_LINE1":"1 48006U 21024AF  21289.66667824  .00055572  00000-0  34445-3 0  9991","COUNTRY_CODE":"US","LAUNCH_DATE":"2021-03-24","REF_FRAME":"TEME","MEAN_ANOMALY":"120.2073","OBJECT_TYPE":"PAYLOAD","CLASSIFICATION_TYPE":"U","ELEMENT_SET_NO":"999","EPOCH":"2021-10-16T16:00:00.999936","GP_ID":"187358021","TLE_LINE2":"2 48006  53.0412 258.6032 0007853 356.2081 120.2073 15.76480420  3688","ECCENTRICITY":"0.00078530"}];
